satname,norad_id,inclination_deg,eccentricity,mean_motion_rev_per_day,perigee_km,apogee_km,l1,l2
STARLINK-1168,45072,53.0526,0.000139,15.06401368,546.2447423517133,548.1699880852439,1 45072U 20006AE  25308.86217683  .00003617  00000+0  26161-3 0  9990,2 45072  53.0526 106.9894 0001390  91.6259 268.4890 15.06401368317926
STARLINK-1172,45074,53.0538,0.0001263,15.06398595,546.341191997536,548.0905361309988,1 45074U 20006AG  25308.80689535  .00000888  00000+0  78522-4 0  9991,2 45074  53.0538 107.2400 0001263  86.3181 273.7953 15.06398595317917
STARLINK-1153,45080,53.0524,0.0001486,15.06411199,546.1481331335726,548.2063365241638,1 45080U 20006AN  25308.85111992  .00004234  00000+0  30289-3 0  9996,2 45080  53.0524 107.0389 0001486  89.2773 270.8386 15.06411199317924
STARLINK-1151,45081,53.0508,0.0001298,15.06410741,546.2797325459887,548.0775444857472,1 45081U 20006AP  25308.50464255  .00004064  00000+0  29145-3 0  9992,2 45081  53.0508 108.6703 0001298  94.2831 265.8307 15.06410741317879
STARLINK-1190,45083,53.0386,0.0004188,15.92910971,291.3472567630597,296.93595732432004,1 45083U 20006AR  25308.91668980  .00259088  36581-4  73565-3 0  9991,2 45083  53.0386  54.7618 0004188 305.7847  32.9529 15.92910971  5855
STARLINK-1185,45087,53.0545,0.0001287,15.06400543,546.3186015767615,548.1011858672064,1 45087U 20006AV  25308.81242178  .00001183  00000+0  98292-4 0  9999,2 45087  53.0545  87.2116 0001287  88.1000 272.0136 15.06400543318201
STARLINK-1183,45088,53.0538,0.0001379,15.06397401,546.264516845813,548.174530174997,1 45088U 20006AW  25308.83453977  .00000808  00000+0  73162-4 0  9995,2 45088  53.0538  87.1143 0001379  91.3213 268.7934 15.06397401318203
STARLINK-1142,45093,53.035,0.000538,15.62932575,375.5557543191053,382.8266394589573,1 45093U 20006BB  25308.91668980  .00108715  00000+0  11685-2 0  9998,2 45093  53.0350  18.2528 0005380   6.3059 236.5850 15.62932575  5935
STARLINK-1152,45096,53.0526,0.0006173,15.24494737,488.061937721307,496.5441830198406,1 45096U 20006BE  25308.72296947  .00028822  00000+0  11660-2 0  9993,2 45096  53.0526  69.2989 0006173 201.9747 158.0986 15.24494737318440
STARLINK-1184,45098,53.0524,0.0001319,15.06399497,546.2996458831294,548.1265532393936,1 45098U 20006BG  25308.78293719  .00000951  00000+0  82706-4 0  9999,2 45098  53.0524  87.3449 0001319  89.3909 270.7231 15.06399497318191
STARLINK-1193,45100,53.0522,0.0001496,15.0640677,546.1547799008249,548.2268379812604,1 45100U 20006BJ  25308.77924325 -.00000646  00000+0 -24487-4 0  9991,2 45100  53.0522  87.3587 0001496  98.0324 262.0834 15.06406770318196
STARLINK-1143,45179,53.0548,0.0009336,15.41193216,436.21874332290645,448.95439837439517,1 45179U 20012B   25308.73318124  .00062992  00000+0  14903-2 0  9994,2 45179  53.0548 210.2293 0009336  70.1150 290.0859 15.41193216316531
STARLINK-1202,45183,53.0543,0.0001578,15.06439478,545.9977652865464,548.1833671064369,1 45183U 20012F   25308.11209675  .00014766  00000+0  10070-2 0  9998,2 45183  53.0543 250.3595 0001578  90.9581 269.1589 15.06439478315911
STARLINK-1216,45185,53.0537,0.0001307,15.06427625,546.2217605951018,548.0320245766234,1 45185U 20012H   25308.10472478  .00011012  00000+0  75645-3 0  9993,2 45185  53.0537 250.3907 0001307  87.5698 272.5440 15.06427625315852
STARLINK-1225,45187,53.0543,0.0001287,15.0641225,546.282726179561,548.0653012344892,1 45187U 20012K   25308.85296877  .00001957  00000+0  15016-3 0  9997,2 45187  53.0543 247.0314 0001287 103.7679 256.3453 15.06412250316014
STARLINK-1230,45189,53.0542,0.0001052,15.06405807,546.4652155808199,547.9223051728031,1 45189U 20012M   25308.85665747  .00000186  00000+0  31352-4 0  9990,2 45189  53.0542 247.0188 0001052  71.9685 288.1418 15.06405807313243
STARLINK-1234,45190,53.0541,0.0003151,15.36558347,454.1421586727247,458.4492181529613,1 45190U 20012N   25308.70724941  .00063457  00000+0  17484-2 0  9996,2 45190  53.0541 203.8055 0003151 113.3624 246.7710 15.36558347316512
STARLINK-1269,45197,53.0555,0.0002395,15.06413866,545.5104501697233,548.8276717729286,1 45197U 20012V   25308.53597747  .00000624  00000+0  60793-4 0  9996,2 45197  53.0555 248.4571 0002395  69.8336 290.2910 15.06413866315941
STARLINK-1154,45198,53.0538,0.000145,15.06451777,546.048720904042,548.0570259673386,1 45198U 20012W   25308.06232886  .00017126  00000+0  11642-2 0  9997,2 45198  53.0538 230.5820 0001450  91.9926 268.1229 15.06451777316125
STARLINK-1199,45201,53.0551,0.0002419,15.06391385,545.5627135950654,548.9132100015831,1 45201U 20012Z   25308.80320079 -.00011696  00000+0 -76769-3 0  9996,2 45201  53.0551 227.2569 0002419  75.8062 284.3195 15.06391385316294
STARLINK-1209,45206,53.0551,0.00021,15.30544451,472.7478057109938,475.62578170435245,1 45206U 20012AE  25308.84779044  .00043527  00000+0  14574-2 0  9996,2 45206  53.0551 203.9305 0002100 109.6900 250.4326 15.30544451315674
STARLINK-1210,45207,53.0218,0.0012409,15.57379764,386.8386712753827,403.6488476442091,1 45207U 20012AF  25308.86890855  .00105209  00000+0  13950-2 0  9996,2 45207  53.0218 165.2168 0012409  80.0321 280.2090 15.57379764317172
STARLINK-1231,45212,53.0514,0.0007002,15.12551104,523.5872543618834,533.2592013049425,1 45212U 20012AL  25308.80139627  .00016560  00000+0  95330-3 0  9993,2 45212  53.0514 225.4181 0007002  61.1574 299.0119 15.12551104316275
STARLINK-1271,45217,53.0534,0.00016,15.06398595,546.1078076060166,548.3239205225173,1 45217U 20012AR  25308.78846608  .00000289  00000+0  38335-4 0  9993,2 45217  53.0534 227.3211 0001600  85.8458 274.2714 15.06398595316293
STARLINK-1191,45222,53.0563,3.57e-05,15.06445247,546.8256558781295,547.3201158639795,1 45222U 20012AW  25308.46593128  .00012331  00000+0  84421-3 0  9997,2 45222  53.0563 208.7707 0000357 334.9189  25.1782 15.06445247316522
STARLINK-1212,45223,53.053,0.0001768,15.06395786,546.0000693629836,548.4488771799324,1 45223U 20012AX  25308.74984203  .00007310  00000+0  50917-3 0  9991,2 45223  53.0530 208.1496 0001768  75.4210 284.6975 15.06395786316567
STARLINK-1215,45225,53.0556,0.000166,15.06394069,546.0801247805775,548.3793465368171,1 45225U 20012AZ  25308.77188193  .00001785  00000+0  13874-3 0  9991,2 45225  53.0556 207.3958 0001660  74.1803 285.9369 15.06394069316526
STARLINK-1221,45227,53.0658,0.0002494,15.36857392,453.70480090615183,457.11337369449666,1 45227U 20012BB  25308.80705227  .00014878  00000+0  41675-3 0  9997,2 45227  53.0658 139.1514 0002494   3.8768 356.2254 15.36857392317472
STARLINK-1222,45228,53.0537,0.0001733,15.06407742,545.9876711319266,548.3879887179783,1 45228U 20012BC  25308.73870275  .00002340  00000+0  17590-3 0  9996,2 45228  53.0537 207.5450 0001733  84.4870 275.6317 15.06407742316450
STARLINK-1226,45229,53.0528,0.0001388,15.06387638,546.2882023082275,548.2106895856214,1 45229U 20012BD  25308.70184838 -.00005375  00000+0 -34234-3 0  9994,2 45229  53.0528 207.7091 0001388  86.9880 273.1268 15.06387638316457
STARLINK-1227,45230,53.0534,0.000151,15.06409559,546.1365379265153,548.2279843433789,1 45230U 20012BE  25308.69816205 -.00000562  00000+0 -18824-4 0  9995,2 45230  53.0534 207.7267 0001510 105.8751 254.2404 15.06409559316578
STARLINK-1246,45235,53.0541,0.0001533,15.06420253,546.0878396873677,548.2111325240085,1 45235U 20012BK  25308.11577653  .00005645  00000+0  39734-3 0  9995,2 45235  53.0541 250.3404 0001533  99.7417 260.3745 15.06420253315932
STARLINK-1270,45237,53.0538,0.0001693,15.06409806,546.0090477008825,548.3539605463802,1 45237U 20012BM  25308.45120436 -.00000685  00000+0 -27106-4 0  9999,2 45237  53.0538 208.8366 0001693  90.1473 269.9710 15.06409806316523
STARLINK-1279,45360,53.0526,0.0003002,15.34593685,460.07418067692925,464.1810755596516,1 45360U 20019A   25308.68600919  .00071557  00000+0  20956-2 0  9995,2 45360  53.0526 334.3871 0003002  25.5590 334.5560 15.34593685311348
STARLINK-1301,45361,53.0524,0.0002872,15.37075119,452.80134751470723,456.72616570930586,1 45361U 20019B   25308.83757301  .00066904  00000+0  18116-2 0  9996,2 45361  53.0524 343.3291 0002872  25.3319 334.7824 15.37075119311248
STARLINK-1306,45362,53.046,0.0006729,15.70566627,352.74426633635085,361.8087858597746,1 45362U 20019C   25308.91668980  .00220161  00000+0  17106-2 0  9995,2 45362  53.0460 332.0612 0006729 324.8745  33.0760 15.70566627  5957
STARLINK-1262,45366,53.0553,0.000152,15.06421085,546.0942930455267,548.1995793621318,1 45366U 20019G   25308.42908746  .00009998  00000+0  68873-3 0  9993,2 45366  53.0553   8.9327 0001520  79.1058 281.0102 15.06421085310857
STARLINK-1273,45367,53.0546,0.0001434,15.06421413,546.1528453824048,548.1390165270022,1 45367U 20019H   25308.58389970  .00009851  00000+0  67893-3 0  9992,2 45367  53.0546   8.2384 0001434  84.5456 275.5696 15.06421413310875
STARLINK-1276,45368,53.0554,0.0001494,15.06417844,546.1222302840724,548.1915080921863,1 45368U 20019J   25308.48806109  .00008497  00000+0  58838-3 0  9994,2 45368  53.0554   8.6728 0001494  98.0865 262.0294 15.06417844310868
STARLINK-1277,45369,53.0553,0.0001317,15.06414932,546.2537315089503,548.0778562648602,1 45369U 20019K   25308.54710478  .00002654  00000+0  19689-3 0  9995,2 45369  53.0553   9.0330 0001317  93.3722 266.7418 15.06414932310860
STARLINK-1281,45370,53.0554,0.0001439,15.06425006,546.1383725807846,548.1314658391339,1 45370U 20019L   25308.54334183  .00007512  00000+0  52232-3 0  9991,2 45370  53.0554   8.4245 0001439  74.3161 285.7987 15.06425006310879
STARLINK-1300,45374,53.0549,0.000156,15.06414519,546.0867122184936,548.2474070851058,1 45374U 20019Q   25308.43277464  .00008890  00000+0  61469-3 0  9993,2 45374  53.0549   8.9169 0001560  98.2608 261.8558 15.06414519310857
STARLINK-1302,45375,53.0544,0.0001452,15.06427654,546.12125540346,548.1323520120559,1 45375U 20019R   25308.58020689  .00010941  00000+0  75167-3 0  9995,2 45375  53.0544   8.2567 0001452  73.3847 286.7301 15.06427654310875
